STARLINK-1007
1 44713U 19074A   24358.50000000  .00010000  00000-0  12345-3 0  9999
2 44713  53.0000  60.0000 0001000  90.0000 270.0000 15.50000000 12345
STARLINK-1008
1 44714U 19074B   24358.50000000  .00010000  00000-0  12345-3 0  9999
2 44714  53.0000 120.0000 0001000  90.0000 270.0000 15.50000000 12346
STARLINK-1009
1 44715U 19074C   24358.50000000  .00010000  00000-0  12345-3 0  9999
2 44715  53.0000 180.0000 0001000  90.0000 270.0000 15.50000000 12347
STARLINK-1010
1 44716U 19074D   24358.50000000  .00010000  00000-0  12345-3 0  9999
2 44716  53.0000 240.0000 0001000  90.0000 270.0000 15.50000000 12348
